{"type": "FeatureCollection", "features": [ {"type": "Feature", "properties": {"norad_id": 40938, "name": "BEIDOU-3S IGSO-2S (C56)", "group": "gnss", "lat": 23.642242844122915, "lon": -77.08489730866444, "alt_km": 36020.83292723331, "timestamp": "2025-12-12T07:43:20.756010+00:00", "meta": {"OBJECT_NAME": "BEIDOU-3S IGSO-2S (C56)", "OBJECT_ID": "2015-053A", "EPOCH": "2025-12-11T20:42:15.107040", "MEAN_MOTION": 1.00269874, "ECCENTRICITY": 0.00609594, "INCLINATION": 49.5118, "RA_OF_ASC_NODE": 261.0153, "ARG_OF_PERICENTER": 188.7908, "MEAN_ANOMALY": 37.5981, "EPHEMERIS_TYPE": 0, "CLASSIFICATION_TYPE": "U", "NORAD_CAT_ID": 40938, "ELEMENT_SET_NO": 999, "REV_AT_EPOCH": 3747, "BSTAR": 0, "MEAN_MOTION_DOT": -1.57e-06, "MEAN_MOTION_DDOT": 0}, "tle": {"line1": "1 40938U 15053A   25345.86267485 -.00000157  00000+0  00000+0 0  9995", "line2": "2 40938  49.5118 261.0153 0060959 188.7908  37.5981  1.00269874 37473"}}, "geometry": {"type": "Point", "coordinates": [-77.08489730866444, 23.642242844122915]}}, {"type": "Feature", "properties": {"norad_id": 41019, "name": "GPS BIIF-11 (PRN 10)", "group": "gnss", "lat": 6.200672666775705, "lon": 42.104563897831724, "alt_km": 20397.309464829024, "timestamp": "2025-12-12T07:43:20.756021+00:00", "meta": {"OBJECT_NAME": "GPS BIIF-11 (PRN 10)", "OBJECT_ID": "2015-062A", "EPOCH": "2025-12-11T07:32:26.435904", "MEAN_MOTION": 2.00567124, "ECCENTRICITY": 0.01107874, "INCLINATION": 56.8311, "RA_OF_ASC_NODE": 38.0574, "ARG_OF_PERICENTER": 229.9047, "MEAN_ANOMALY": 129.1688, "EPHEMERIS_TYPE": 0, "CLASSIFICATION_TYPE": "U", "NORAD_CAT_ID": 41019, "ELEMENT_SET_NO": 999, "REV_AT_EPOCH": 7406, "BSTAR": 0, "MEAN_MOTION_DOT": -9.3e-07, "MEAN_MOTION_DDOT": 0}, "tle": {"line1": "1 41019U 15062A   25345.31419486 -.00000093  00000+0  00000+0 0  9995", "line2": "2 41019  56.8311  38.0574 0110787 229.9047 129.1688  2.00567124 74064"}}, "geometry": {"type": "Point", "coordinates": [42.104563897831724, 6.200672666775705]}}, {"type": "Feature", "properties": {"norad_id": 41028, "name": "GSAT-15 (GAGAN/PRN 139)", "group": "gnss", "lat": 0.007614985421110752, "lon": -69.36917952547732, "alt_km": 35780.03473013644, "timestamp": "2025-12-12T07:43:20.756032+00:00", "meta": {"OBJECT_NAME": "GSAT-15 (GAGAN/PRN 139)", "OBJECT_ID": "2015-065A", "EPOCH": "2025-12-11T22:12:22.368960", "MEAN_MOTION": 1.00272156, "ECCENTRICITY": 0.0002948, "INCLINATION": 0.0474, "RA_OF_ASC_NODE": 266.0661, "ARG_OF_PERICENTER": 323.0513, "MEAN_ANOMALY": 278.3547, "EPHEMERIS_TYPE": 0, "CLASSIFICATION_TYPE": "U", "NORAD_CAT_ID": 41028, "ELEMENT_SET_NO": 999, "REV_AT_EPOCH": 3692, "BSTAR": 0, "MEAN_MOTION_DOT": -2.49e-06, "MEAN_MOTION_DDOT": 0}, "tle": {"line1": "1 41028U 15065A   25345.92525890 -.00000249  00000+0  00000+0 0  9995", "line2": "2 41028   0.0474 266.0661 0002948 323.0513 278.3547  1.00272156 36929"}}, "geometry": {"type": "Point", "coordinates": [-69.36917952547732, 0.007614985421110752]}}, {"type": "Feature", "properties": {"norad_id": 41174, "name": "GSAT0209 (GALILEO 12)", "group": "gnss", "lat": -49.742593631894955, "lon": -20.008384407282588, "alt_km": 23229.406748673897, "timestamp": "2025-12-12T07:43:20.756046+00:00", "meta": {"OBJECT_NAME": "GSAT0209 (GALILEO 12)", "OBJECT_ID": "2015-079A", "EPOCH": "2025-12-10T17:53:22.611840", "MEAN_MOTION": 1.70474458, "ECCENTRICITY": 0.00024095, "INCLINATION": 55.7117, "RA_OF_ASC_NODE": 106.4357, "ARG_OF_PERICENTER": 351.4479, "MEAN_ANOMALY": 8.5179, "EPHEMERIS_TYPE": 0, "CLASSIFICATION_TYPE": "U", "NORAD_CAT_ID": 41174, "ELEMENT_SET_NO": 999, "REV_AT_EPOCH": 6156, "BSTAR": 0, "MEAN_MOTION_DOT": 1.1e-07, "MEAN_MOTION_DDOT": 0}, "tle": {"line1": "1 41174U 15079A   25344.74540060  .00000011  00000+0  00000+0 0  9993", "line2": "2 41174  55.7117 106.4357 0002409 351.4479   8.5179  1.70474458 61567"}}, "geometry": {"type": "Point", "coordinates": [-20.008384407282588, -49.742593631894955]}}, {"type": "Feature", "properties": {"norad_id": 41175, "name": "GSAT0208 (GALILEO 11)", "group": "gnss", "lat": 49.81732275360015, "lon": -127.44282785230334, "alt_km": 23218.102819647436, "timestamp": "2025-12-12T07:43:20.756058+00:00", "meta": {"OBJECT_NAME": "GSAT0208 (GALILEO 11)", "OBJECT_ID": "2015-079B", "EPOCH": "2025-12-08T14:51:40.201056", "MEAN_MOTION": 1.70474231, "ECCENTRICITY": 0.0001859, "INCLINATION": 55.7088, "RA_OF_ASC_NODE": 106.4912, "ARG_OF_PERICENTER": 3.1611, "MEAN_ANOMALY": 356.8026, "EPHEMERIS_TYPE": 0, "CLASSIFICATION_TYPE": "U", "NORAD_CAT_ID": 41175, "ELEMENT_SET_NO": 999, "REV_AT_EPOCH": 6194, "BSTAR": 0, "MEAN_MOTION_DOT": 1e-07, "MEAN_MOTION_DDOT": 0}, "tle": {"line1": "1 41175U 15079B   25342.61921529  .00000010  00000+0  00000+0 0  9990", "line2": "2 41175  55.7088 106.4912 0001859   3.1611 356.8026  1.70474231 61940"}}, "geometry": {"type": "Point", "coordinates": [-127.44282785230334, 49.81732275360015]}}, {"type": "Feature", "properties": {"norad_id": 41241, "name": "IRNSS-1E", "group": "gnss", "lat": -29.873175974144598, "lon": -54.70181123709503, "alt_km": 35742.245061323454, "timestamp": "2025-12-12T07:43:20.756069+00:00", "meta": {"OBJECT_NAME": "IRNSS-1E", "OBJECT_ID": "2016-003A", "EPOCH": "2025-12-11T16:00:36.417888", "MEAN_MOTION": 1.00274353, "ECCENTRICITY": 0.00218711, "INCLINATION": 32.823, "RA_OF_ASC_NODE": 62.4692, "ARG_OF_PERICENTER": 187.0713, "MEAN_ANOMALY": 183.0302, "EPHEMERIS_TYPE": 0, "CLASSIFICATION_TYPE": "U", "NORAD_CAT_ID": 41241, "ELEMENT_SET_NO": 999, "REV_AT_EPOCH": 3620, "BSTAR": 0, "MEAN_MOTION_DOT": -3.05e-06, "MEAN_MOTION_DDOT": 0}, "tle": {"line1": "1 41241U 16003A   25345.66708817 -.00000305  00000+0  00000+0 0  9991", "line2": "2 41241  32.8230  62.4692 0021871 187.0713 183.0302  1.00274353 36200"}}, "geometry": {"type": "Point", "coordinates": [-54.70181123709503, -29.873175974144598]}}, {"type": "Feature", "properties": {"norad_id": 41328, "name": "GPS BIIF-12 (PRN 32)", "group": "gnss", "lat": -40.474067079723326, "lon": 60.83173837939058, "alt_km": 20080.152868969926, "timestamp": "2025-12-12T07:43:20.756081+00:00", "meta": {"OBJECT_NAME": "GPS BIIF-12 (PRN 32)", "OBJECT_ID": "2016-007A", "EPOCH": "2025-12-10T21:33:15.579936", "MEAN_MOTION": 2.00560768, "ECCENTRICITY": 0.0092092, "INCLINATION": 55.4051, "RA_OF_ASC_NODE": 96.9301, "ARG_OF_PERICENTER": 243.5329, "MEAN_ANOMALY": 115.5097, "EPHEMERIS_TYPE": 0, "CLASSIFICATION_TYPE": "U", "NORAD_CAT_ID": 41328, "ELEMENT_SET_NO": 999, "REV_AT_EPOCH": 7206, "BSTAR": 0, "MEAN_MOTION_DOT": 1e-08, "MEAN_MOTION_DDOT": 0}, "tle": {"line1": "1 41328U 16007A   25344.89809699  .00000001  00000+0  00000+0 0  9997", "line2": "2 41328  55.4051  96.9301 0092092 243.5329 115.5097  2.00560768 72065"}}, "geometry": {"type": "Point", "coordinates": [60.83173837939058, -40.474067079723326]}}, {"type": "Feature", "properties": {"norad_id": 41330, "name": "COSMOS 2514 (751)", "group": "gnss", "lat": -25.4024658777239, "lon": 152.12748391875178, "alt_km": 19103.13005075055, "timestamp": "2025-12-12T07:43:20.756092+00:00", "meta": {"OBJECT_NAME": "COSMOS 2514 (751)", "OBJECT_ID": "2016-008A", "EPOCH": "2025-12-11T02:40:55.560288", "MEAN_MOTION": 2.13102604, "ECCENTRICITY": 0.00121607, "INCLINATION": 65.1347, "RA_OF_ASC_NODE": 319.4596, "ARG_OF_PERICENTER": 220.0573, "MEAN_ANOMALY": 139.8518, "EPHEMERIS_TYPE": 0, "CLASSIFICATION_TYPE": "U", "NORAD_CAT_ID": 41330, "ELEMENT_SET_NO": 999, "REV_AT_EPOCH": 7661, "BSTAR": 0, "MEAN_MOTION_DOT": -5.2e-07, "MEAN_MOTION_DDOT": 0}, "tle": {"line1": "1 41330U 16008A   25345.11175417 -.00000052  00000+0  00000+0 0  9998", "line2": "2 41330  65.1347 319.4596 0012160 220.0573 139.8518  2.13102604 76619"}}, "geometry": {"type": "Point", "coordinates": [152.12748391875178, -25.4024658777239]}}, {"type": "Feature", "properties": {"norad_id": 41384, "name": "IRNSS-1F", "group": "gnss", "lat": 3.827873608180764, "lon": -130.6355706562154, "alt_km": 35727.2789150988, "timestamp": "2025-12-12T07:43:20.756104+00:00", "meta": {"OBJECT_NAME": "IRNSS-1F", "OBJECT_ID": "2016-015A", "EPOCH": "2025-12-11T22:13:32.490336", "MEAN_MOTION": 1.00272094, "ECCENTRICITY": 0.00225401, "INCLINATION": 4.8786, "RA_OF_ASC_NODE": 101.3204, "ARG_OF_PERICENTER": 180.582, "MEAN_ANOMALY": 164.7229, "EPHEMERIS_TYPE": 0, "CLASSIFICATION_TYPE": "U", "NORAD_CAT_ID": 41384, "ELEMENT_SET_NO": 999, "REV_AT_EPOCH": 3578, "BSTAR": 0, "MEAN_MOTION_DOT": 1.67e-06, "MEAN_MOTION_DDOT": 0}, "tle": {"line1": "1 41384U 16015A   25345.92607049  .00000167  00000+0  00000+0 0  9991", "line2": "2 41384   4.8786 101.3204 0022540 180.5820 164.7229  1.00272094 35782"}}, "geometry": {"type": "Point", "coordinates": [-130.6355706562154, 3.827873608180764]}}, {"type": "Feature", "properties": {"norad_id": 41434, "name": "BEIDOU-2 IGSO-6 (C13)", "group": "gnss", "lat": -54.62414970046927, "lon": -85.59889719944329, "alt_km": 35545.17045268664, "timestamp": "2025-12-12T07:43:20.756116+00:00", "meta": {"OBJECT_NAME": "BEIDOU-2 IGSO-6 (C13)", "OBJECT_ID": "2016-021A", "EPOCH": "2025-12-11T15:29:12.615360", "MEAN_MOTION": 1.00293077, "ECCENTRICITY": 0.00608616, "INCLINATION": 59.9644, "RA_OF_ASC_NODE": 39.9082, "ARG_OF_PERICENTER": 229.9753, "MEAN_ANOMALY": 135.9177, "EPHEMERIS_TYPE": 0, "CLASSIFICATION_TYPE": "U", "NORAD_CAT_ID": 41434, "ELEMENT_SET_NO": 999, "REV_AT_EPOCH": 3560, "BSTAR": 0, "MEAN_MOTION_DOT": -1.62e-06, "MEAN_MOTION_DDOT": 0}, "tle": {"line1": "1 41434U 16021A   25345.64528490 -.00000162  00000+0  00000+0 0  9991", "line2": "2 41434  59.9644  39.9082 0060861 229.9753 135.9177  1.00293077 35600"}}, "geometry": {"type": "Point", "coordinates": [-85.59889719944329, -54.62414970046927]}}]}